{
  "type": "FeatureCollection",
  "features": [
    {
      "type": "Feature",
      "properties": {
        "norad_id": 36744,
        "name": "COMS 1",
        "group": "weather",
        "lat": -2.6981863061953226,
        "lon": -63.85165381977861,
        "alt_km": 35782.38375522975,
        "timestamp": "2025-12-12T05:47:28.414438+00:00",
        "meta_object_name": "COMS 1",
        "meta_object_id": "2010-032A",
        "meta_epoch": "2025-12-11T15:50:01.719168",
        "meta_mean_motion": 1.00270393,
        "meta_eccentricity": 0.00010766,
        "meta_inclination": 4.3389,
        "meta_ra_of_asc_node": 78.0101,
        "meta_arg_of_pericenter": 214.1904,
        "meta_mean_anomaly": 154.095,
        "meta_ephemeris_type": 0,
        "meta_classification_type": "U",
        "meta_norad_cat_id": 36744,
        "meta_element_set_no": 999,
        "meta_rev_at_epoch": 4921,
        "meta_bstar": 0,
        "meta_mean_motion_dot": -3.37e-06,
        "meta_mean_motion_ddot": 0,
        "tle_line1": "1 36744U 10032A   25345.65974212 -.00000337  00000+0  00000+0 0  9997",
        "tle_line2": "2 36744   4.3389  78.0101 0001076 214.1904 154.0950  1.00270393 49210"
      },
      "geometry": {
        "type": "Point",
        "coordinates": [
          -63.85165381977861,
          -2.6981863061953226
        ]
      }
    },
    {
      "type": "Feature",
      "properties": {
        "norad_id": 37214,
        "name": "FENGYUN 3B",
        "group": "weather",
        "lat": 17.271125099606923,
        "lon": 23.392982639044355,
        "alt_km": 828.2964176438472,
        "timestamp": "2025-12-12T05:47:28.414450+00:00",
        "meta_object_name": "FENGYUN 3B",
        "meta_object_id": "2010-059A",
        "meta_epoch": "2025-12-12T01:07:35.260896",
        "meta_mean_motion": 14.14790524,
        "meta_eccentricity": 0.00220882,
        "meta_inclination": 98.9907,
        "meta_ra_of_asc_node": 26.0187,
        "meta_arg_of_pericenter": 359.6997,
        "meta_mean_anomaly": 108.4226,
        "meta_ephemeris_type": 0,
        "meta_classification_type": "U",
        "meta_norad_cat_id": 37214,
        "meta_element_set_no": 999,
        "meta_rev_at_epoch": 78096,
        "meta_bstar": 0.00025735795,
        "meta_mean_motion_dot": 4.52e-06,
        "meta_mean_motion_ddot": 0,
        "tle_line1": "1 37214U 10059A   25346.04693589  .00000452  00000+0  25736-3 0  9992",
        "tle_line2": "2 37214  98.9907  26.0187 0022088 359.6997 108.4226 14.14790524780963"
      },
      "geometry": {
        "type": "Point",
        "coordinates": [
          23.392982639044355,
          17.271125099606923
        ]
      }
    },
    {
      "type": "Feature",
      "properties": {
        "norad_id": 37849,
        "name": "SUOMI NPP",
        "group": "weather",
        "lat": -29.60192497827168,
        "lon": 98.55170971635738,
        "alt_km": 832.8306820824027,
        "timestamp": "2025-12-12T05:47:28.414462+00:00",
        "meta_object_name": "SUOMI NPP",
        "meta_object_id": "2011-061A",
        "meta_epoch": "2025-12-11T23:43:50.651616",
        "meta_mean_motion": 14.19513866,
        "meta_eccentricity": 0.00022223,
        "meta_inclination": 98.7772,
        "meta_ra_of_asc_node": 283.3371,
        "meta_arg_of_pericenter": 121.6606,
        "meta_mean_anomaly": 238.4787,
        "meta_ephemeris_type": 0,
        "meta_classification_type": "U",
        "meta_norad_cat_id": 37849,
        "meta_element_set_no": 999,
        "meta_rev_at_epoch": 73188,
        "meta_bstar": 0.00010523145,
        "meta_mean_motion_dot": 1.78e-06,
        "meta_mean_motion_ddot": 0,
        "tle_line1": "1 37849U 11061A   25345.98878069  .00000178  00000+0  10523-3 0  9993",
        "tle_line2": "2 37849  98.7772 283.3371 0002222 121.6606 238.4787 14.19513866731880"
      },
      "geometry": {
        "type": "Point",
        "coordinates": [
          98.55170971635738,
          -29.60192497827168
        ]
      }
    },
    {
      "type": "Feature",
      "properties": {
        "norad_id": 38552,
        "name": "METEOSAT-10 (MSG-3)",
        "group": "weather",
        "lat": 4.052589926248141,
        "lon": 168.2680218672793,
        "alt_km": 35787.44126840676,
        "timestamp": "2025-12-12T05:47:28.414475+00:00",
        "meta_object_name": "METEOSAT-10 (MSG-3)",
        "meta_object_id": "2012-035B",
        "meta_epoch": "2025-12-11T20:21:35.712000",
        "meta_mean_motion": 1.00274739,
        "meta_eccentricity": 8.094e-05,
        "meta_inclination": 4.2271,
        "meta_ra_of_asc_node": 61.7269,
        "meta_arg_of_pericenter": 249.9337,
        "meta_mean_anomaly": 74.7093,
        "meta_ephemeris_type": 0,
        "meta_classification_type": "U",
        "meta_norad_cat_id": 38552,
        "meta_element_set_no": 999,
        "meta_rev_at_epoch": 4897,
        "meta_bstar": 0,
        "meta_mean_motion_dot": 2e-08,
        "meta_mean_motion_ddot": 0,
        "tle_line1": "1 38552U 12035B   25345.84833000  .00000002  00000+0  00000+0 0  9999",
        "tle_line2": "2 38552   4.2271  61.7269 0000809 249.9337  74.7093  1.00274739 48977"
      },
      "geometry": {
        "type": "Point",
        "coordinates": [
          168.2680218672793,
          4.052589926248141
        ]
      }
    },
    {
      "type": "Feature",
      "properties": {
        "norad_id": 38771,
        "name": "METOP-B",
        "group": "weather",
        "lat": 57.54864939373054,
        "lon": 22.307800213011152,
        "alt_km": 814.8919541106507,
        "timestamp": "2025-12-12T05:47:28.414486+00:00",
        "meta_object_name": "METOP-B",
        "meta_object_id": "2012-049A",
        "meta_epoch": "2025-12-11T22:45:31.396320",
        "meta_mean_motion": 14.2140787,
        "meta_eccentricity": 0.00028775,
        "meta_inclination": 98.6801,
        "meta_ra_of_asc_node": 35.9205,
        "meta_arg_of_pericenter": 145.8562,
        "meta_mean_anomaly": 214.2801,
        "meta_ephemeris_type": 0,
        "meta_classification_type": "U",
        "meta_norad_cat_id": 38771,
        "meta_element_set_no": 999,
        "meta_rev_at_epoch": 68666,
        "meta_bstar": 0.00011678016,
        "meta_mean_motion_dot": 2.12e-06,
        "meta_mean_motion_ddot": 0,
        "tle_line1": "1 38771U 12049A   25345.94828005  .00000212  00000+0  11678-3 0  9997",
        "tle_line2": "2 38771  98.6801  35.9205 0002877 145.8562 214.2801 14.21407870686663"
      },
      "geometry": {
        "type": "Point",
        "coordinates": [
          22.307800213011152,
          57.54864939373054
        ]
      }
    },
    {
      "type": "Feature",
      "properties": {
        "norad_id": 39216,
        "name": "INSAT-3D",
        "group": "weather",
        "lat": -0.7904181070956324,
        "lon": -62.40281704410795,
        "alt_km": 35782.43613241349,
        "timestamp": "2025-12-12T05:47:28.414520+00:00",
        "meta_object_name": "INSAT-3D",
        "meta_object_id": "2013-038B",
        "meta_epoch": "2025-12-11T19:15:49.511232",
        "meta_mean_motion": 1.00270347,
        "meta_eccentricity": 0.00015039,
        "meta_inclination": 1.4427,
        "meta_ra_of_asc_node": 85.0027,
        "meta_arg_of_pericenter": 164.0419,
        "meta_mean_anomaly": 250.209,
        "meta_ephemeris_type": 0,
        "meta_classification_type": "U",
        "meta_norad_cat_id": 39216,
        "meta_element_set_no": 999,
        "meta_rev_at_epoch": 4520,
        "meta_bstar": 0,
        "meta_mean_motion_dot": -3.31e-06,
        "meta_mean_motion_ddot": 0,
        "tle_line1": "1 39216U 13038B   25345.80265638 -.00000331  00000+0  00000+0 0  9999",
        "tle_line2": "2 39216   1.4427  85.0027 0001503 164.0419 250.2090  1.00270347 45200"
      },
      "geometry": {
        "type": "Point",
        "coordinates": [
          -62.40281704410795,
          -0.7904181070956324
        ]
      }
    },
    {
      "type": "Feature",
      "properties": {
        "norad_id": 39260,
        "name": "FENGYUN 3C",
        "group": "weather",
        "lat": -43.39595660678653,
        "lon": -27.949453739262303,
        "alt_km": 851.473821382132,
        "timestamp": "2025-12-12T05:47:28.414532+00:00",
        "meta_object_name": "FENGYUN 3C",
        "meta_object_id": "2013-052A",
        "meta_epoch": "2025-12-12T00:54:37.393056",
        "meta_mean_motion": 14.15695925,
        "meta_eccentricity": 0.00142501,
        "meta_inclination": 98.4762,
        "meta_ra_of_asc_node": 323.7516,
        "meta_arg_of_pericenter": 198.1082,
        "meta_mean_anomaly": 161.9587,
        "meta_ephemeris_type": 0,
        "meta_classification_type": "U",
        "meta_norad_cat_id": 39260,
        "meta_element_set_no": 999,
        "meta_rev_at_epoch": 63208,
        "meta_bstar": 0.00011328804,
        "meta_mean_motion_dot": 1.81e-06,
        "meta_mean_motion_ddot": 0,
        "tle_line1": "1 39260U 13052A   25346.03793279  .00000181  00000+0  11329-3 0  9999",
        "tle_line2": "2 39260  98.4762 323.7516 0014250 198.1082 161.9587 14.15695925632089"
      },
      "geometry": {
        "type": "Point",
        "coordinates": [
          -27.949453739262303,
          -43.39595660678653
        ]
      }
    }
  ]
}